NORAD_CAT_ID,OBJECT_NAME,OBJECT_TYPE,EPOCH,MEAN_MOTION,ECCENTRICITY,INCLINATION,RA_OF_ASC_NODE,ARG_OF_PERICENTER,MEAN_ANOMALY,BSTAR,MEAN_MOTION_DOT,MEAN_MOTION_DDOT,TLE_LINE0,TLE_LINE1,TLE_LINE2,SEMIMAJOR_AXIS,PERIOD,APOGEE,PERIGEE,DECAYED
54788.0,STARLINK-5399,PAYLOAD,2023-09-28 20:30:39,15.08846331,0.0001352,53.2159,77.0754,80.2611,279.8534,0.00017982,2.576e-05,0.0,0 STARLINK-5399,1 54788U 22175AG  23271.85462437  .00002576  00000-0  17982-3 0  9993,2 54788  53.2159  77.0754 0001352  80.2611 279.8534 15.08846331 45341,6917.861,95.437,540.661,538.791,0.0
54788.0,STARLINK-5399,PAYLOAD,2023-09-29 18:46:03,15.08848876,0.000161,53.2177,72.9102,73.0291,287.0878,9.1033e-05,1.161e-05,0.0,0 STARLINK-5399,1 54788U 22175AG  23272.78198304  .00001161  00000-0  91033-4 0  9994,2 54788  53.2177  72.9102 0001610  73.0291 287.0878 15.08848876 43327,6917.853,95.437,540.832,538.604,0.0
54788.0,STARLINK-5399,PAYLOAD,2023-09-30 17:01:27,15.08844504,0.0001387,53.2173,68.7478,98.1476,261.9673,6.1818e-05,6.96e-06,0.0,0 STARLINK-5399,1 54788U 22175AG  23273.70934305  .00000696  00000-0  61818-4 0  9996,2 54788  53.2173  68.7478 0001387  98.1476 261.9673 15.08844504 43469,6917.867,95.437,540.691,538.772,0.0
54788.0,STARLINK-5399,PAYLOAD,2023-10-01 13:41:27,15.08845533,0.0001465,53.2167,64.8826,105.9175,254.1979,0.00013598,1.877e-05,0.0,0 STARLINK-5399,1 54788U 22175AG  23274.57046180  .00001877  00000-0  13598-3 0  9990,2 54788  53.2167  64.8826 0001465 105.9175 254.1979 15.08845533 45756,6917.863,95.437,540.742,538.715,0.0
54788.0,STARLINK-5399,PAYLOAD,2023-10-01 16:52:13,15.08851319,0.0001371,53.2169,64.2889,91.8218,268.2931,0.00010764,1.426e-05,0.0,0 STARLINK-5399,1 54788U 22175AG  23274.70293900  .00001426  00000-0  10764-3 0  9991,2 54788  53.2169  64.2889 0001371  91.8218 268.2931 15.08851319 45773,6917.846,95.437,540.659,538.762,0.0
54788.0,STARLINK-5399,PAYLOAD,2023-10-02 10:21:29,15.08837923,0.0001298,53.2159,61.0184,85.841,274.273,1.3346e-05,-7.5e-07,0.0,0 STARLINK-5399,1 54788U 22175AG  23275.43158648 -.00000075  00000-0  13346-4 0  9991,2 54788  53.2159  61.0184 0001298  85.8410 274.2730 15.08837923 43722,6917.887,95.438,540.65,538.854,0.0
54788.0,STARLINK-5399,PAYLOAD,2023-10-02 18:18:24,15.08840327,0.0001444,53.2168,59.5337,88.1959,271.9199,5.0671e-05,5.19e-06,0.0,0 STARLINK-5399,1 54788U 22175AG  23275.76278609  .00000519  00000-0  50671-4 0  9991,2 54788  53.2168  59.5337 0001444  88.1959 271.9199 15.08840327 45931,6917.879,95.438,540.743,538.745,0.0
54788.0,STARLINK-5399,PAYLOAD,2023-10-03 13:23:02,15.08834327,0.0001556,53.2182,55.9677,93.5174,266.5996,-2.1749e-05,-6.34e-06,0.0,0 STARLINK-5399,1 54788U 22175AG  23276.55767161 -.00000634  00000-0 -21749-4 0  9999,2 54788  53.2182  55.9677 0001556  93.5174 266.5996 15.08834327 46059,6917.898,95.438,540.839,538.686,0.0
54788.0,STARLINK-5399,PAYLOAD,2023-10-03 14:58:26,15.08836736,0.0001517,53.2179,55.6695,94.6596,265.4569,2.0884e-05,4.4e-07,0.0,0 STARLINK-5399,1 54788U 22175AG  23276.62391329  .00000044  00000-0  20884-4 0  9998,2 54788  53.2179  55.6695 0001517  94.6596 265.4569 15.08836736 43900,6917.89,95.438,540.805,538.706,0.0
54788.0,STARLINK-5399,PAYLOAD,2023-10-03 18:09:12,15.08835831,0.0001458,53.2181,55.0745,95.3177,264.7982,3.0181e-05,1.92e-06,0.0,0 STARLINK-5399,1 54788U 22175AG  23276.75639407  .00000192  00000-0  30181-4 0  9999,2 54788  53.2181  55.0745 0001458  95.3177 264.7982 15.08835831 46088,6917.893,95.438,540.767,538.75,0.0
54788.0,STARLINK-5399,PAYLOAD,2023-10-04 16:24:35,15.08849251,0.000163,53.2173,50.9113,92.5022,267.6156,0.00023335,3.429e-05,0.0,0 STARLINK-5399,1 54788U 22175AG  23277.68374437  .00003429  00000-0  23335-3 0  9999,2 54788  53.2173  50.9113 0001630  92.5022 267.6156 15.08849251 44064,6917.852,95.437,540.845,538.59,0.0
54788.0,STARLINK-5399,PAYLOAD,2023-10-05 01:56:54,15.08842825,0.0001386,53.2172,49.1258,88.6861,271.429,0.00010588,1.398e-05,0.0,0 STARLINK-5399,1 54788U 22175AG  23278.08118694  .00001398  00000-0  10588-3 0  9994,2 54788  53.2172  49.1258 0001386  88.6861 271.4290 15.08842825 44127,6917.872,95.437,540.696,538.778,0.0
54788.0,STARLINK-5399,PAYLOAD,2023-10-05 09:53:50,15.08832583,0.0001566,53.2173,47.6399,96.4532,263.6639,5.2956e-06,-2.04e-06,0.0,0 STARLINK-5399,1 54788U 22175AG  23278.41239339 -.00000204  00000-0  52956-5 0  9994,2 54788  53.2173  47.6399 0001566  96.4532 263.6639 15.08832583 44174,6917.903,95.438,540.851,538.685,0.0
54788.0,STARLINK-5399,PAYLOAD,2023-10-05 13:04:37,15.08838499,0.0001736,53.219,47.0459,90.4536,269.6655,8.2105e-05,1.019e-05,0.0,0 STARLINK-5399,1 54788U 22175AG  23278.54487302  .00001019  00000-0  82105-4 0  9995,2 54788  53.2190  47.0459 0001736  90.4536 269.6655 15.08838499 46359,6917.885,95.438,540.951,538.549,0.0
54788.0,STARLINK-5399,PAYLOAD,2023-10-05 16:15:22,15.08845515,0.0001441,53.2167,46.4494,98.9072,261.2084,0.00015926,2.248e-05,0.0,0 STARLINK-5399,1 54788U 22175AG  23278.67734650  .00002248  00000-0  15926-3 0  9991,2 54788  53.2167  46.4494 0001441  98.9072 261.2084 15.08845515 44210,6917.864,95.437,540.725,538.732,0.0
54788.0,STARLINK-5399,PAYLOAD,2023-10-06 08:09:14,15.08836428,0.0001497,53.2183,43.4775,90.0403,270.0761,-0.00011236,-2.076e-05,0.0,0 STARLINK-5399,1 54788U 22175AG  23279.33975276 -.00002076  00000-0 -11236-3 0  9997,2 54788  53.2183  43.4775 0001497  90.0403 270.0761 15.08836428 44313,6917.891,95.438,540.792,538.721,0.0
54788.0,STARLINK-5399,PAYLOAD,2023-10-06 14:30:47,15.08837146,0.0001503,53.2182,42.2887,86.6121,273.5043,-8.5289e-06,-4.24e-06,0.0,0 STARLINK-5399,1 54788U 22175AG  23279.60471414 -.00000424  00000-0 -85289-5 0  9998,2 54788  53.2182  42.2887 0001503  86.6121 273.5043 15.08837146 46512,6917.889,95.438,540.794,538.714,0.0
54788.0,STARLINK-5399,PAYLOAD,2023-10-06 16:06:10,15.08841419,0.0001456,53.2174,41.9908,85.1985,274.9173,0.00011077,1.475e-05,0.0,0 STARLINK-5399,1 54788U 22175AG  23279.67095303  .00001475  00000-0  11077-3 0  9991,2 54788  53.2174  41.9908 0001456  85.1985 274.9173 15.08841419 46520,6917.876,95.437,540.748,538.734,0.0
54788.0,STARLINK-5399,PAYLOAD,2023-10-07 14:21:34,15.08849996,0.0001407,53.2172,37.8273,82.7273,277.3879,0.00047496,7.281e-05,0.0,0 STARLINK-5399,1 54788U 22175AG  23280.59831364  .00007281  00000-0  47496-3 0  9994,2 54788  53.2172  37.8273 0001407  82.7273 277.3879 15.08849996 46669,6917.85,95.437,540.688,538.741,0.0
54788.0,STARLINK-5399,PAYLOAD,2023-10-08 01:29:16,15.08847427,0.0001322,53.2164,35.7461,84.6365,275.4778,0.00039729,6.042e-05,0.0,0 STARLINK-5399,1 54788U 22175AG  23281.06199320  .00006042  00000-0  39729-3 0  9990,2 54788  53.2164  35.7461 0001322  84.6365 275.4778 15.08847427 44577,6917.858,95.437,540.637,538.808,0.0
54788.0,STARLINK-5399,PAYLOAD,2023-10-08 14:12:20,15.08859037,0.0001462,53.2178,33.367,85.9786,274.1374,0.00042843,6.541e-05,0.0,0 STARLINK-5399,1 54788U 22175AG  23281.59190850  .00006541  00000-0  42843-3 0  9992,2 54788  53.2178  33.3670 0001462  85.9786 274.1374 15.08859037 46811,6917.822,95.436,540.699,538.676,0.0
54788.0,STARLINK-5399,PAYLOAD,2023-10-09 07:41:35,15.08846219,0.0001105,53.2168,30.0956,94.3578,265.754,0.00013822,1.913e-05,0.0,0 STARLINK-5399,1 54788U 22175AG  23282.32055090  .00001913  00000-0  13822-3 0  9993,2 54788  53.2168  30.0956 0001105  94.3578 265.7540 15.08846219 44769,6917.861,95.437,540.491,538.962,0.0
54788.0,STARLINK-5399,PAYLOAD,2023-10-09 14:03:08,15.08845169,0.0001348,53.2175,28.9065,95.5644,264.5502,0.00011166,1.49e-05,0.0,0 STARLINK-5399,1 54788U 22175AG  23282.58551110  .00001490  00000-0  11166-3 0  9994,2 54788  53.2175  28.9065 0001348  95.5644 264.5502 15.08845169 46962,6917.865,95.437,540.662,538.797,0.0
54788.0,STARLINK-5399,PAYLOAD,2023-10-10 10:43:08,15.08846286,0.0001373,53.2182,25.042,97.8683,262.2465,0.00020391,2.959e-05,0.0,0 STARLINK-5399,1 54788U 22175AG  23283.44663058  .00002959  00000-0  20391-3 0  9996,2 54788  53.2182  25.0420 0001373  97.8683 262.2465 15.08846286 44938,6917.861,95.437,540.676,538.776,0.0
54788.0,STARLINK-5399,PAYLOAD,2023-10-10 13:53:54,15.08853591,0.0001419,53.2188,24.451,96.1444,263.971,0.00034165,5.156e-05,0.0,0 STARLINK-5399,1 54788U 22175AG  23283.57910769  .00005156  00000-0  34165-3 0  9990,2 54788  53.2188  24.4510 0001419  96.1444 263.9710 15.08853591 47116,6917.839,95.437,540.685,538.722,0.0
54788.0,STARLINK-5399,PAYLOAD,2023-10-10 18:40:03,15.08867306,0.0001328,53.2179,23.5535,96.1511,263.9632,0.00065391,0.00010142,0.0,0 STARLINK-5399,1 54788U 22175AG  23283.77782219  .00010142  00000-0  65391-3 0  9995,2 54788  53.2179  23.5535 0001328  96.1511 263.9632 15.08867306 47142,6917.797,95.436,540.581,538.743,0.0
54788.0,STARLINK-5399,PAYLOAD,2023-10-11 10:33:56,15.0883504,0.0001554,53.2185,20.583,103.5198,256.5967,3.7181e-05,3.04e-06,0.0,0 STARLINK-5399,1 54788U 22175AG  23284.44023630  .00000304  00000-0  37181-4 0  9991,2 54788  53.2185  20.5830 0001554 103.5198 256.5967 15.08835040 45089,6917.896,95.438,540.836,538.686,0.0
54788.0,STARLINK-5399,PAYLOAD,2023-10-11 13:44:42,15.08836859,0.0001701,53.2196,19.9896,109.2259,250.8917,0.00014563,2.03e-05,0.0,0 STARLINK-5399,1 54788U 22175AG  23284.57271589  .00002030  00000-0  14563-3 0  9999,2 54788  53.2196  19.9896 0001701 109.2259 250.8917 15.08836859 47263,6917.89,95.438,540.932,538.578,0.0
54788.0,STARLINK-5399,PAYLOAD,2023-10-12 13:35:30,15.08842917,0.0001813,53.2192,15.527,86.2351,273.8848,0.00032396,4.872e-05,0.0,0 STARLINK-5399,1 54788U 22175AG  23285.56631970  .00004872  00000-0  32396-3 0  9993,2 54788  53.2192  15.5270 0001813  86.2351 273.8848 15.08842917 47415,6917.871,95.437,540.991,538.482,0.0
54788.0,STARLINK-5399,PAYLOAD,2023-10-13 11:50:54,15.08841571,0.0001433,53.217,11.363,92.5264,267.5892,0.0001946,2.811e-05,0.0,0 STARLINK-5399,1 54788U 22175AG  23286.49368196  .00002811  00000-0  19460-3 0  9991,2 54788  53.2170  11.3630 0001433  92.5264 267.5892 15.08841571 45395,6917.876,95.437,540.732,538.749,0.0
